IRIDIUM 39              
1 25042U 97069D   25085.89036010  .00002514  00000+0  65634-3 0  9999
2 25042  86.3875 246.4002 0016671 216.3555 143.6518 14.49042074437049
IRIDIUM 38              
1 25043U 97069E   25085.78418748  .00001397  00000+0  45564-3 0  9998
2 25043  86.3898 267.8328 0003031  51.2323 308.9145 14.37998504434110
IRIDIUM 42              
1 25077U 97077A   25085.61973041  .00001283  00000+0  43296-3 0  9992
2 25077  86.3901 273.9767 0002505  74.6983 285.4491 14.36242615429349
IRIDIUM 44              
1 25078U 97077B   25085.72749663  .00001461  00000+0  45694-3 0  9998
2 25078  86.3909 256.0539 0001018  28.8589 331.2666 14.40128920431836
IRIDIUM 45              
1 25104U 97082A   25085.73269639  .00034589  00000+0  13701-2 0  9995
2 25104  86.3540  87.8309 0121499 280.0141  78.7409 15.18601463439519
IRIDIUM 24              
1 25105U 97082B   25085.80622366  .00001318  00000+0  39616-3 0  9992
2 25105  86.3869 115.2572 0011189   2.4473 357.6779 14.41973044431344
IRIDIUM 51              
1 25262U 98018A   25085.77710980  .00050148  00000+0  13467-2 0  9992
2 25262  86.3806  96.4377 0098128 203.4900 156.1855 15.32895323434375
IRIDIUM 57              
1 25273U 98019B   25085.73019837  .00001090  00000+0  37010-3 0  9997
2 25273  86.4037 179.7810 0002155  92.8838 267.2605 14.35812414412955
